<?xml version="1.0"?>
<gpx version="1.1" creator="OpenCPN" xmlns:xsi="http://www.w3.org/2001/XMLSchema-instance" xmlns="http://www.topografix.com/GPX/1/1" xmlns:gpxx="http://www.garmin.com/xmlschemas/GpxExtensions/v3" xsi:schemaLocation="http://www.topografix.com/GPX/1/1 http://www.topografix.com/GPX/1/1/gpx.xsd http://www.garmin.com/xmlschemas/GpxExtensions/v3 http://www8.garmin.com/xmlschemas/GpxExtensionsv3.xsd" xmlns:opencpn="http://www.opencpn.org">
  <rte>
    <name>ais_route_replay</name>
    <extensions>
      <opencpn:guid>77a02fb6-43de-48a8-93b3-e7b91168d4d6</opencpn:guid>
      <opencpn:viz>1</opencpn:viz>
      <opencpn:planned_speed>6.00</opencpn:planned_speed>
      <opencpn:planned_departure>2026-04-29T03:28:03Z</opencpn:planned_departure>
      <opencpn:time_display>GLOBAL SETTING</opencpn:time_display>
      <gpxx:RouteExtension>
        <gpxx:IsAutoNamed>false</gpxx:IsAutoNamed>
      </gpxx:RouteExtension>
    </extensions>
    <rtept lat="-24.759160455" lon="152.401735127">
      <time>2026-04-29T03:27:17Z</time>
      <name>001</name>
      <sym>diamond</sym>
      <type>WPT</type>
      <extensions>
        <opencpn:guid>347bef99-3050-4b89-afbd-c0fc776abe5d</opencpn:guid>
        <opencpn:arrival_radius>0.050</opencpn:arrival_radius>
        <opencpn:waypoint_range_rings visible="false" number="0" step="1" units="0" colour="#FF0000" />
        <opencpn:scale_min_max UseScale="false" ScaleMin="2147483646" ScaleMax="0" />
      </extensions>
    </rtept>
    <rtept lat="-24.757980441" lon="152.402082311">
      <time>2026-04-29T03:27:18Z</time>
      <name>002</name>
      <sym>diamond</sym>
      <type>WPT</type>
      <extensions>
        <opencpn:guid>5d9700aa-c0f7-43c0-8636-7e024d26b881</opencpn:guid>
        <opencpn:arrival_radius>0.050</opencpn:arrival_radius>
        <opencpn:waypoint_range_rings visible="false" number="0" step="1" units="0" colour="#FF0000" />
        <opencpn:scale_min_max UseScale="false" ScaleMin="2147483646" ScaleMax="0" />
      </extensions>
    </rtept>
    <rtept lat="-24.756458117" lon="152.402350138">
      <time>2026-04-29T03:27:20Z</time>
      <name>003</name>
      <sym>diamond</sym>
      <type>WPT</type>
      <extensions>
        <opencpn:guid>392469b3-492c-4a47-aa07-f7663067c5b0</opencpn:guid>
        <opencpn:arrival_radius>0.050</opencpn:arrival_radius>
        <opencpn:waypoint_range_rings visible="false" number="0" step="1" units="0" colour="#FF0000" />
        <opencpn:scale_min_max UseScale="false" ScaleMin="2147483646" ScaleMax="0" />
      </extensions>
    </rtept>
    <rtept lat="-24.755494269" lon="152.405058172">
      <time>2026-04-29T03:27:22Z</time>
      <name>004</name>
      <sym>diamond</sym>
      <type>WPT</type>
      <extensions>
        <opencpn:guid>59fe87e1-b418-484f-a455-1d172167c1ab</opencpn:guid>
        <opencpn:arrival_radius>0.050</opencpn:arrival_radius>
        <opencpn:waypoint_range_rings visible="false" number="0" step="1" units="0" colour="#FF0000" />
        <opencpn:scale_min_max UseScale="false" ScaleMin="2147483646" ScaleMax="0" />
      </extensions>
    </rtept>
    <rtept lat="-24.755899626" lon="152.407448781">
      <time>2026-04-29T03:27:23Z</time>
      <name>005</name>
      <sym>diamond</sym>
      <type>WPT</type>
      <extensions>
        <opencpn:guid>06a314cc-a17b-4d85-860c-6a9b1cfc7d2b</opencpn:guid>
        <opencpn:arrival_radius>0.050</opencpn:arrival_radius>
        <opencpn:waypoint_range_rings visible="false" number="0" step="1" units="0" colour="#FF0000" />
        <opencpn:scale_min_max UseScale="false" ScaleMin="2147483646" ScaleMax="0" />
      </extensions>
    </rtept>
    <rtept lat="-24.755016846" lon="152.408252263">
      <time>2026-04-29T03:27:24Z</time>
      <name>006</name>
      <sym>diamond</sym>
      <type>WPT</type>
      <extensions>
        <opencpn:guid>38ab5a7d-f17b-47e2-b56d-012977c6d737</opencpn:guid>
        <opencpn:arrival_radius>0.050</opencpn:arrival_radius>
        <opencpn:waypoint_range_rings visible="false" number="0" step="1" units="0" colour="#FF0000" />
        <opencpn:scale_min_max UseScale="false" ScaleMin="2147483646" ScaleMax="0" />
      </extensions>
    </rtept>
    <rtept lat="-24.754332236" lon="152.407359505">
      <time>2026-04-29T03:27:25Z</time>
      <name>007</name>
      <sym>diamond</sym>
      <type>WPT</type>
      <extensions>
        <opencpn:guid>7666a713-1490-4328-9651-e6360685b13f</opencpn:guid>
        <opencpn:arrival_radius>0.050</opencpn:arrival_radius>
        <opencpn:waypoint_range_rings visible="false" number="0" step="1" units="0" colour="#FF0000" />
        <opencpn:scale_min_max UseScale="false" ScaleMin="2147483646" ScaleMax="0" />
      </extensions>
    </rtept>
    <rtept lat="-24.754818670" lon="152.406099723">
      <time>2026-04-29T03:27:26Z</time>
      <name>008</name>
      <sym>diamond</sym>
      <type>WPT</type>
      <extensions>
        <opencpn:guid>08b7252c-1f24-4719-a581-fd947b39bdae</opencpn:guid>
        <opencpn:arrival_radius>0.050</opencpn:arrival_radius>
        <opencpn:waypoint_range_rings visible="false" number="0" step="1" units="0" colour="#FF0000" />
        <opencpn:scale_min_max UseScale="false" ScaleMin="2147483646" ScaleMax="0" />
      </extensions>
    </rtept>
    <rtept lat="-24.755494269" lon="152.404324126">
      <time>2026-04-29T03:27:28Z</time>
      <name>009</name>
      <sym>diamond</sym>
      <type>WPT</type>
      <extensions>
        <opencpn:guid>67814436-d14c-4a57-9b4e-4a7f44987982</opencpn:guid>
        <opencpn:arrival_radius>0.050</opencpn:arrival_radius>
        <opencpn:waypoint_range_rings visible="false" number="0" step="1" units="0" colour="#FF0000" />
        <opencpn:scale_min_max UseScale="false" ScaleMin="2147483646" ScaleMax="0" />
      </extensions>
    </rtept>
    <rtept lat="-24.756160856" lon="152.402121989">
      <time>2026-04-29T03:27:29Z</time>
      <name>010</name>
      <sym>diamond</sym>
      <type>WPT</type>
      <extensions>
        <opencpn:guid>3e63208e-d31a-4aa4-9c24-84e51fd9a887</opencpn:guid>
        <opencpn:arrival_radius>0.050</opencpn:arrival_radius>
        <opencpn:waypoint_range_rings visible="false" number="0" step="1" units="0" colour="#FF0000" />
        <opencpn:scale_min_max UseScale="false" ScaleMin="2147483646" ScaleMax="0" />
      </extensions>
    </rtept>
    <rtept lat="-24.759160455" lon="152.401735127">
      <time>2026-04-29T03:27:17Z</time>
      <name>001</name>
      <sym>diamond</sym>
      <type>WPT</type>
      <extensions>
        <opencpn:guid>347bef99-3050-4b89-afbd-c0fc776abe5d</opencpn:guid>
        <opencpn:arrival_radius>0.050</opencpn:arrival_radius>
        <opencpn:waypoint_range_rings visible="false" number="0" step="1" units="0" colour="#FF0000" />
        <opencpn:scale_min_max UseScale="false" ScaleMin="2147483646" ScaleMax="0" />
      </extensions>
    </rtept>
  </rte>
</gpx>
